COSMOS 2493 (SKRL-756 1)
1 39490U 13078A   26068.88109627  .00005252  00000+0  40276-3 0  9992
2 39490  82.4165 358.3033 0011855 214.7485 145.2966 15.01584319663059
FORMOSAT-8A             
1 66666U 25276A   26068.74577890  .00002730  00000+0  21776-3 0  9998
2 66666  97.6538 144.4530 0002033 294.9162  65.1850 15.01132970 15147
