[{"OBJECT_NAME":"COSMOS 2493 (SKRL-756 1)","OBJECT_ID":"2013-078A","EPOCH":"2026-03-09T21:08:46.717728","MEAN_MOTION":15.01584319,"ECCENTRICITY":0.00118545,"INCLINATION":82.4165,"RA_OF_ASC_NODE":358.3033,"ARG_OF_PERICENTER":214.7485,"MEAN_ANOMALY":145.2966,"EPHEMERIS_TYPE":0,"CLASSIFICATION_TYPE":"U","NORAD_CAT_ID":39490,"ELEMENT_SET_NO":999,"REV_AT_EPOCH":66305,"BSTAR":0.00040276291,"MEAN_MOTION_DOT":5.252e-5,"MEAN_MOTION_DDOT":0},{"OBJECT_NAME":"FORMOSAT-8A","OBJECT_ID":"2025-276A","EPOCH":"2026-03-09T17:53:55.297824","MEAN_MOTION":15.0113297,"ECCENTRICITY":0.00020333,"INCLINATION":97.6538,"RA_OF_ASC_NODE":144.453,"ARG_OF_PERICENTER":294.9162,"MEAN_ANOMALY":65.185,"EPHEMERIS_TYPE":0,"CLASSIFICATION_TYPE":"U","NORAD_CAT_ID":66666,"ELEMENT_SET_NO":999,"REV_AT_EPOCH":1514,"BSTAR":0.00021775611,"MEAN_MOTION_DOT":2.73e-5,"MEAN_MOTION_DDOT":0}]
